0 FENGYUN 1C DEB
1 35139U 99025DLT 13281.88062962  .00000360  00000-0  20011-3 0  2553
2 35139 098.9288 292.4537 0074357 092.2527 268.7217 14.15840872283794
0 FENGYUN 1C DEB
1 35139U 99025DLT 13287.81678461  .00000411  00000-0  22567-3 0  2576
2 35139 098.9264 298.3924 0074417 075.6133 285.3407 14.15847644284632
0 FENGYUN 1C DEB
1 35139U 99025DLT 13291.27951779  .00000462  00000-0  25069-3 0  2584
2 35139 098.9250 301.8578 0073272 065.2302 295.6652 14.15852604285126
0 FENGYUN 1C DEB
1 35139U 99025DLT 13294.81290663  .00000499  00000-0  26927-3 0  2590
2 35139 098.9260 305.3968 0073383 055.8060 305.0356 14.15857472285628
